[{"OBJECT_NAME":"STARLINK-31800","OBJECT_ID":"2024-082N","EPOCH":"2026-03-09T06:12:45.344160","MEAN_MOTION":15.27572796,"ECCENTRICITY":9.074e-5,"INCLINATION":43.0009,"RA_OF_ASC_NODE":142.4296,"ARG_OF_PERICENTER":246.2429,"MEAN_ANOMALY":113.8327,"EPHEMERIS_TYPE":0,"CLASSIFICATION_TYPE":"U","NORAD_CAT_ID":59643,"ELEMENT_SET_NO":999,"REV_AT_EPOCH":10484,"BSTAR":2.0279998e-5,"MEAN_MOTION_DOT":2.96e-6,"MEAN_MOTION_DDOT":0},{"OBJECT_NAME":"COSMOS 2535 DEB","OBJECT_ID":"2019-039M","EPOCH":"2026-03-08T03:25:35.903424","MEAN_MOTION":15.28322551,"ECCENTRICITY":0.0014917,"INCLINATION":97.5619,"RA_OF_ASC_NODE":139.2722,"ARG_OF_PERICENTER":329.0964,"MEAN_ANOMALY":30.9396,"EPHEMERIS_TYPE":0,"CLASSIFICATION_TYPE":"U","NORAD_CAT_ID":44641,"ELEMENT_SET_NO":999,"REV_AT_EPOCH":35167,"BSTAR":0.0011539757,"MEAN_MOTION_DOT":0.0003196,"MEAN_MOTION_DDOT":0}]
